Subject:
MAJOR BODY #C(500@0)_T(199) (1/1)
From:
Horizons Ephemeris System <horizons@ssd.jpl.nasa.gov>
Date:
Fri, 24 Sep 2004 11:36:01 -0700 (PDT)

 Automated mail xmit by PORT_LOGIN, PID=   15852 Fri Sep 24 11:36:01 2004
++++++++++++++++++++++++++++++++ (part 1 of 1)  +++++++++++++++++++++++++++++++

*******************************************************************************
Ephemeris / PORT_LOGIN Fri Sep 24 11:35:32 2004  Pasadena, USA   / Horizons    
*******************************************************************************
Target body name: Mercury (199)                   {source: DE-0406LE-0406}
Center body name: Solar System Barycenter (0)     {source: DE-0406LE-0406}
Center-site name: BODYCENTRIC
*******************************************************************************
Start time      : A.D. 1968-Dec-20 00:00:00.0000 CT 
Stop  time      : A.D. 1968-Dec-29 00:00:00.0000 CT 
Step-size       : 60 minutes
*******************************************************************************
Center geodetic : 0.000000,  0.000000,  0.00000   {E-lon(deg),Lat(deg),Alt(km)}
Center cylindric: 0.00000,     0.000,     0.000   {E-lon(deg),Dxy(km),Dz(km)}
Center radii    : (undefined)                                                  
Output units    : AU-D                                                         
Output format   : 03
Reference frame : ICRF/J2000.0                                                 
Output type     : GEOMETRIC cartesian states
Coordinate systm: Ecliptic and Mean Equinox of Reference Epoch                 
*******************************************************************************
JDCT 
   X     Y     Z
   VX    VY    VZ
   LT    RG    RR
*******************************************************************************
$$SOE
2440210.500000000 = A.D. 1968-Dec-20 00:00:00.0000 (CT)
   1.712064307818299E-01 -4.109852146579233E-01 -4.891237639894722E-02
   2.043473614508072E-02  1.201778839655715E-02 -8.963785952121690E-04
   2.586844984152765E-03  4.478983245932777E-01 -3.118411078068159E-03
2440210.541666667 = A.D. 1968-Dec-20 01:00:00.0000 (CT)
   1.720573940659972E-01 -4.104832841970407E-01 -4.894958393635127E-02
   2.041147815736540E-02  1.207487096889052E-02 -8.895812813646456E-04
   2.586093281396863E-03  4.477681712957189E-01 -3.128945751368995E-03
2440210.583333333 = A.D. 1968-Dec-20 02:00:00.0000 (CT)
   1.729073853488867E-01 -4.099789756418410E-01 -4.898650801250638E-02
   2.038808005353125E-02  1.213193688577620E-02 -8.827724555903489E-04
   2.585339044558931E-03  4.476375792354581E-01 -3.139471679463048E-03
2440210.625000000 = A.D. 1968-Dec-20 03:00:00.0000 (CT)
   1.737563987885462E-01 -4.094722896910587E-01 -4.902314814779010E-02
   2.036454165202249E-02  1.218898591866675E-02 -8.759521198713386E-04
   2.584582275749476E-03  4.475065487779176E-01 -3.149988812455348E-03
2440210.666666667 = A.D. 1968-Dec-20 04:00:00.0000 (CT)
   1.746044285354482E-01 -4.089632270529746E-01 -4.905950386266347E-02
   2.034086277078817E-02  1.224601783789327E-02 -8.691202762357539E-04
   2.583822977091033E-03  4.473750802906036E-01 -3.160497100227673E-03
2440210.708333333 = A.D. 1968-Dec-20 05:00:00.0000 (CT)
   1.754514687324695E-01 -4.084517884454624E-01 -4.909557467767301E-02
   2.031704322728383E-02  1.230303241265861E-02 -8.622769267585160E-04
   2.583061150718228E-03  4.472431741431148E-01 -3.170996492437374E-03
2440210.750000000 = A.D. 1968-Dec-20 06:00:00.0000 (CT)
   1.762975135148706E-01 -4.079379745960358E-01 -4.913136011345275E-02
   2.029308283847320E-02  1.236002941103049E-02 -8.554220735620482E-04
   2.582296798777827E-03  4.471108307071521E-01 -3.181486938516171E-03
2440210.791666667 = A.D. 1968-Dec-20 07:00:00.0000 (CT)
   1.771425570102754E-01 -4.074217862418964E-01 -4.916685969072609E-02
   2.026898142082998E-02  1.241700859993462E-02 -8.485557188170066E-04
   2.581529923428793E-03  4.469780503565289E-01 -3.191968387668920E-03
2440210.833333333 = A.D. 1968-Dec-20 08:00:00.0000 (CT)
   1.779865933386504E-01 -4.069032241299808E-01 -4.920207293030795E-02
   2.024473879033949E-02  1.247396974514778E-02 -8.416778647429820E-04
   2.580760526842342E-03  4.468448334671790E-01 -3.202440788872422E-03
2440210.875000000 = A.D. 1968-Dec-20 09:00:00.0000 (CT)
   1.788296166122852E-01 -4.063822890170095E-01 -4.923699935310660E-02
   2.022035476250052E-02  1.253091261129086E-02 -8.347885136092614E-04
   2.579988611201993E-03  4.467111804171672E-01 -3.212904090874220E-03
2440210.916666667 = A.D. 1968-Dec-20 10:00:00.0000 (CT)
   1.796716209357711E-01 -4.058589816695340E-01 -4.927163848012618E-02
   2.019582915232717E-02  1.258783696182189E-02 -8.278876677355380E-04
   2.579214178703629E-03  4.465770915866989E-01 -3.223358242191313E-03
2440210.958333333 = A.D. 1968-Dec-20 11:00:00.0000 (CT)
   1.805126004059820E-01 -4.053333028639866E-01 -4.930598983246830E-02
   2.017116177435059E-02  1.264474255902903E-02 -8.209753294926640E-04
   2.578437231555548E-03  4.464425673581289E-01 -3.233803191109004E-03
2440211.000000000 = A.D. 1968-Dec-20 12:00:00.0000 (CT)
   1.813525491120540E-01 -4.048052533867285E-01 -4.934005293133462E-02
   2.014635244262096E-02  1.270162916402353E-02 -8.140515013034048E-04
   2.577657771978522E-03  4.463076081159723E-01 -3.244238885679613E-03
2440211.041666667 = A.D. 1968-Dec-20 13:00:00.0000 (CT)
   1.821914611353648E-01 -4.042748340340991E-01 -4.937382729802869E-02
   2.012140097070930E-02  1.275849653673267E-02 -8.071161856431690E-04
   2.576875802205852E-03  4.461722142469128E-01 -3.254665273721290E-03
2440211.083333333 = A.D. 1968-Dec-20 14:00:00.0000 (CT)
   1.830293305495148E-01 -4.037420456124662E-01 -4.940731245395846E-02
   2.009630717170949E-02  1.281534443589267E-02 -8.001693850407905E-04
   2.576091324483426E-03  4.460363861398141E-01 -3.265082302816739E-03
2440211.125000000 = A.D. 1968-Dec-20 15:00:00.0000 (CT)
   1.838661514203065E-01 -4.032068889382744E-01 -4.944050792063818E-02
   2.007107085824014E-02  1.287217261904155E-02 -7.932111020792684E-04
   2.575304341069772E-03  4.459001241857281E-01 -3.275489920311977E-03
2440211.166666667 = A.D. 1968-Dec-20 16:00:00.0000 (CT)
   1.847019178057250E-01 -4.026693648380965E-01 -4.947341321969110E-02
   2.004569184244668E-02  1.292898084251199E-02 -7.862413393965484E-04
   2.574514854236120E-03  4.457634287779059E-01 -3.285888073315112E-03
2440211.208333333 = A.D. 1968-Dec-20 17:00:00.0000 (CT)
   1.855366237559183E-01 -4.021294741486833E-01 -4.950602787285143E-02
   2.002016993600328E-02  1.298576886142413E-02 -7.792600996862932E-04
   2.573722866266454E-03  4.456263003118075E-01 -3.296276708695088E-03
2440211.250000000 = A.D. 1968-Dec-20 18:00:00.0000 (CT)
   1.863702633131776E-01 -4.015872177170142E-01 -4.953835140196663E-02
   1.999450495011504E-02  1.304253642967838E-02 -7.722673856986576E-04
   2.572928379457577E-03  4.454887391851117E-01 -3.306655773080385E-03
2440211.291666667 = A.D. 1968-Dec-20 19:00:00.0000 (CT)
   1.872028305119182E-01 -4.010425964003483E-01 -4.957038332900027E-02
   1.996869669551992E-02  1.309928329994816E-02 -7.652632002410670E-04
   2.572131396119161E-03  4.453507457977259E-01 -3.317025212857812E-03
2440211.333333333 = A.D. 1968-Dec-20 20:00:00.0000 (CT)
   1.880343193786596E-01 -4.004956110662755E-01 -4.960212317603387E-02
   1.994274498249103E-02  1.315600922367263E-02 -7.582475461790205E-04
   2.571331918573810E-03  4.452123205517965E-01 -3.327384974171219E-03
2440211.375000000 = A.D. 1968-Dec-20 21:00:00.0000 (CT)
   1.888647239320063E-01 -3.999462625927687E-01 -4.963357046526960E-02
   1.991664962083866E-02  1.321271395104937E-02 -7.512204264368734E-04
   2.570529949157120E-03  4.450734638517193E-01 -3.337735002920224E-03
2440211.416666667 = A.D. 1968-Dec-20 22:00:00.0000 (CT)
   1.896940381826287E-01 -3.993945518682347E-01 -4.966472471903279E-02
   1.989041041991250E-02  1.326939723102709E-02 -7.441818439986401E-04
   2.569725490217732E-03  4.449341761041490E-01 -3.348075244758965E-03
2440211.458333333 = A.D. 1968-Dec-20 23:00:00.0000 (CT)
   1.905222561332439E-01 -3.988404797915673E-01 -4.969558545977430E-02
   1.986402718860394E-02  1.332605881129822E-02 -7.371318019087976E-04
   2.568918544117396E-03  4.447944577180101E-01 -3.358405645094766E-03
2440211.500000000 = A.D. 1968-Dec-21 00:00:00.0000 (CT)
   1.913493717785966E-01 -3.982840472721992E-01 -4.972615221007315E-02
   1.983749973534821E-02  1.338269843829157E-02 -7.300703032731051E-04
   2.568109113231031E-03  4.446543091045069E-01 -3.368726149086932E-03
2440211.541666667 = A.D. 1968-Dec-21 01:00:00.0000 (CT)
   1.921753791054403E-01 -3.977252552301552E-01 -4.975642449263902E-02
   1.981082786812674E-02  1.343931585716482E-02 -7.229973512594124E-04
   2.567297199946782E-03  4.445137306771338E-01 -3.379036701645403E-03
2440211.583333333 = A.D. 1968-Dec-21 02:00:00.0000 (CT)
   1.930002720925180E-01 -3.971641045961050E-01 -4.978640183031492E-02
   1.978401139446948E-02  1.349591081179716E-02 -7.159129490984789E-04
   2.566482806666081E-03  4.443727228516861E-01 -3.389337247429495E-03
2440211.625000000 = A.D. 1968-Dec-21 03:00:00.0000 (CT)
   1.938240447105441E-01 -3.966005963114166E-01 -4.981608374607980E-02
   1.975705012145724E-02  1.355248304478176E-02 -7.088171000848160E-04
   2.565665935803709E-03  4.442312860462698E-01 -3.399627730846586E-03
2440211.666666667 = A.D. 1968-Dec-21 04:00:00.0000 (CT)
   1.946466909221852E-01 -3.960347313282107E-01 -4.984546976305118E-02
   1.972994385572412E-02  1.360903229741823E-02 -7.017098075775060E-04
   2.564846589787853E-03  4.440894206813127E-01 -3.409908096050831E-03
2440211.708333333 = A.D. 1968-Dec-21 05:00:00.0000 (CT)
   1.954682046820417E-01 -3.954665106094138E-01 -4.987455940448804E-02
   1.970269240345991E-02  1.366555830970515E-02 -6.945910750010504E-04
   2.564024771060173E-03  4.439471271795753E-01 -3.420178286941853E-03
